{
  "type": "FeatureCollection",
  "features": [
    {
      "type": "Feature",
      "properties": {
        "norad_id": 26766,
        "name": "INTELSAT 10 (IS-10)",
        "group": "intelsat",
        "lat": -0.9871234834720088,
        "lon": 54.549241836447365,
        "alt_km": 36147.462881496045,
        "timestamp": "2025-12-03T10:52:57.117345+00:00",
        "meta_object_name": "INTELSAT 10 (IS-10)",
        "meta_object_id": "2001-019A",
        "meta_epoch": "2025-12-02T11:35:38.856768",
        "meta_mean_motion": 0.99077787,
        "meta_eccentricity": 0.00076986,
        "meta_inclination": 8.6036,
        "meta_ra_of_asc_node": 61.2568,
        "meta_arg_of_pericenter": 218.3784,
        "meta_mean_anomaly": 148.6829,
        "meta_ephemeris_type": 0,
        "meta_classification_type": "U",
        "meta_norad_cat_id": 26766,
        "meta_element_set_no": 999,
        "meta_rev_at_epoch": 4363,
        "meta_bstar": 0,
        "meta_mean_motion_dot": -1.25e-06,
        "meta_mean_motion_ddot": 0,
        "tle_line1": "1 26766U 01019A   25336.48308862 -.00000125  00000+0  00000+0 0  9993",
        "tle_line2": "2 26766   8.6036  61.2568 0007698 218.3784 148.6829  0.99077787 43631"
      },
      "geometry": {
        "type": "Point",
        "coordinates": [
          54.549241836447365,
          -0.9871234834720088
        ]
      }
    },
    {
      "type": "Feature",
      "properties": {
        "norad_id": 26900,
        "name": "INTELSAT 902 (IS-902)",
        "group": "intelsat",
        "lat": 5.218551517609672,
        "lon": -174.31519531395068,
        "alt_km": 35777.92306545239,
        "timestamp": "2025-12-03T10:52:57.117369+00:00",
        "meta_object_name": "INTELSAT 902 (IS-902)",
        "meta_object_id": "2001-039A",
        "meta_epoch": "2025-12-01T16:59:59.311968",
        "meta_mean_motion": 1.00270327,
        "meta_eccentricity": 0.00043097,
        "meta_inclination": 5.6187,
        "meta_ra_of_asc_node": 74.2002,
        "meta_arg_of_pericenter": 175.119,
        "meta_mean_anomaly": 26.3816,
        "meta_ephemeris_type": 0,
        "meta_classification_type": "U",
        "meta_norad_cat_id": 26900,
        "meta_element_set_no": 999,
        "meta_rev_at_epoch": 8871,
        "meta_bstar": 0,
        "meta_mean_motion_dot": -2.63e-06,
        "meta_mean_motion_ddot": 0,
        "tle_line1": "1 26900U 01039A   25335.70832537 -.00000263  00000+0  00000+0 0  9993",
        "tle_line2": "2 26900   5.6187  74.2002 0004309 175.1190  26.3816  1.00270327 88713"
      },
      "geometry": {
        "type": "Point",
        "coordinates": [
          -174.31519531395068,
          5.218551517609672
        ]
      }
    },
    {
      "type": "Feature",
      "properties": {
        "norad_id": 27380,
        "name": "INTELSAT 904 (IS-904)",
        "group": "intelsat",
        "lat": 4.699293969988719,
        "lon": -155.56676238394897,
        "alt_km": 35783.653031121336,
        "timestamp": "2025-12-03T10:52:57.117385+00:00",
        "meta_object_name": "INTELSAT 904 (IS-904)",
        "meta_object_id": "2002-007A",
        "meta_epoch": "2025-12-03T03:19:57.878976",
        "meta_mean_motion": 1.00269372,
        "meta_eccentricity": 0.0001581,
        "meta_inclination": 6.4293,
        "meta_ra_of_asc_node": 71.5412,
        "meta_arg_of_pericenter": 200.7188,
        "meta_mean_anomaly": 178.4698,
        "meta_ephemeris_type": 0,
        "meta_classification_type": "U",
        "meta_norad_cat_id": 27380,
        "meta_element_set_no": 999,
        "meta_rev_at_epoch": 4980,
        "meta_bstar": 0,
        "meta_mean_motion_dot": -2.1e-06,
        "meta_mean_motion_ddot": 0,
        "tle_line1": "1 27380U 02007A   25337.13886434 -.00000210  00000+0  00000+0 0  9998",
        "tle_line2": "2 27380   6.4293  71.5412 0001581 200.7188 178.4698  1.00269372 49801"
      },
      "geometry": {
        "type": "Point",
        "coordinates": [
          -155.56676238394897,
          4.699293969988719
        ]
      }
    },
    {
      "type": "Feature",
      "properties": {
        "norad_id": 27426,
        "name": "DIRECTV 5 (TEMPO 1)",
        "group": "intelsat",
        "lat": 3.2526350271302586,
        "lon": 125.52647475165342,
        "alt_km": 35798.06440722506,
        "timestamp": "2025-12-03T10:52:57.117399+00:00",
        "meta_object_name": "DIRECTV 5 (TEMPO 1)",
        "meta_object_id": "2002-023A",
        "meta_epoch": "2025-12-02T21:49:20.210880",
        "meta_mean_motion": 1.00271152,
        "meta_eccentricity": 0.0003735,
        "meta_inclination": 4.375,
        "meta_ra_of_asc_node": 77.7678,
        "meta_arg_of_pericenter": 188.6813,
        "meta_mean_anomaly": 22.7679,
        "meta_ephemeris_type": 0,
        "meta_classification_type": "U",
        "meta_norad_cat_id": 27426,
        "meta_element_set_no": 999,
        "meta_rev_at_epoch": 8615,
        "meta_bstar": 0,
        "meta_mean_motion_dot": -3.9e-07,
        "meta_mean_motion_ddot": 0,
        "tle_line1": "1 27426U 02023A   25336.90926170 -.00000039  00000+0  00000+0 0  9992",
        "tle_line2": "2 27426   4.3750  77.7678 0003735 188.6813  22.7679  1.00271152 86159"
      },
      "geometry": {
        "type": "Point",
        "coordinates": [
          125.52647475165342,
          3.2526350271302586
        ]
      }
    },
    {
      "type": "Feature",
      "properties": {
        "norad_id": 27438,
        "name": "INTELSAT 905 (IS-905)",
        "group": "intelsat",
        "lat": 2.7998679168321634,
        "lon": 98.42686064603001,
        "alt_km": 35797.56842655425,
        "timestamp": "2025-12-03T10:52:57.117412+00:00",
        "meta_object_name": "INTELSAT 905 (IS-905)",
        "meta_object_id": "2002-027A",
        "meta_epoch": "2025-12-02T09:56:38.679648",
        "meta_mean_motion": 1.00272936,
        "meta_eccentricity": 0.00030691,
        "meta_inclination": 6.2577,
        "meta_ra_of_asc_node": 72.1733,
        "meta_arg_of_pericenter": 187.1236,
        "meta_mean_anomaly": 184.1903,
        "meta_ephemeris_type": 0,
        "meta_classification_type": "U",
        "meta_norad_cat_id": 27438,
        "meta_element_set_no": 999,
        "meta_rev_at_epoch": 4939,
        "meta_bstar": 0,
        "meta_mean_motion_dot": 1.12e-06,
        "meta_mean_motion_ddot": 0,
        "tle_line1": "1 27438U 02027A   25336.41433657  .00000112  00000+0  00000+0 0  9999",
        "tle_line2": "2 27438   6.2577  72.1733 0003069 187.1236 184.1903  1.00272936 49393"
      },
      "geometry": {
        "type": "Point",
        "coordinates": [
          98.42686064603001,
          2.7998679168321634
        ]
      }
    },
    {
      "type": "Feature",
      "properties": {
        "norad_id": 27445,
        "name": "GALAXY 3C (G-3C)",
        "group": "intelsat",
        "lat": 2.8146950828500517,
        "lon": 140.8519117740208,
        "alt_km": 35781.922654864924,
        "timestamp": "2025-12-03T10:52:57.117424+00:00",
        "meta_object_name": "GALAXY 3C (G-3C)",
        "meta_object_id": "2002-030A",
        "meta_epoch": "2025-12-02T21:53:42.294048",
        "meta_mean_motion": 1.00270323,
        "meta_eccentricity": 0.0001283,
        "meta_inclination": 3.2379,
        "meta_ra_of_asc_node": 80.605,
        "meta_arg_of_pericenter": 98.4026,
        "meta_mean_anomaly": 126.5707,
        "meta_ephemeris_type": 0,
        "meta_classification_type": "U",
        "meta_norad_cat_id": 27445,
        "meta_element_set_no": 999,
        "meta_rev_at_epoch": 4452,
        "meta_bstar": 0,
        "meta_mean_motion_dot": -1.34e-06,
        "meta_mean_motion_ddot": 0,
        "tle_line1": "1 27445U 02030A   25336.91229507 -.00000134  00000+0  00000+0 0  9998",
        "tle_line2": "2 27445   3.2379  80.6050 0001283  98.4026 126.5707  1.00270323 44521"
      },
      "geometry": {
        "type": "Point",
        "coordinates": [
          140.8519117740208,
          2.8146950828500517
        ]
      }
    },
    {
      "type": "Feature",
      "properties": {
        "norad_id": 27513,
        "name": "INTELSAT 906 (IS-906)",
        "group": "intelsat",
        "lat": -3.7352319592089334,
        "lon": -60.18169942949283,
        "alt_km": 35764.569254931776,
        "timestamp": "2025-12-03T10:52:57.117470+00:00",
        "meta_object_name": "INTELSAT 906 (IS-906)",
        "meta_object_id": "2002-041A",
        "meta_epoch": "2025-12-02T23:52:51.743712",
        "meta_mean_motion": 1.0027309,
        "meta_eccentricity": 0.0006114,
        "meta_inclination": 5.3043,
        "meta_ra_of_asc_node": 75.3469,
        "meta_arg_of_pericenter": 191.3579,
        "meta_mean_anomaly": 227.7367,
        "meta_ephemeris_type": 0,
        "meta_classification_type": "U",
        "meta_norad_cat_id": 27513,
        "meta_element_set_no": 999,
        "meta_rev_at_epoch": 8506,
        "meta_bstar": 0,
        "meta_mean_motion_dot": 3e-07,
        "meta_mean_motion_ddot": 0,
        "tle_line1": "1 27513U 02041A   25336.99504333  .00000030  00000+0  00000+0 0  9991",
        "tle_line2": "2 27513   5.3043  75.3469 0006114 191.3579 227.7367  1.00273090 85061"
      },
      "geometry": {
        "type": "Point",
        "coordinates": [
          -60.18169942949283,
          -3.7352319592089334
        ]
      }
    }
  ]
}